[Satellite]
VERSION=1.1
NAME=GENESIS 1
NICKNAME=GENESIS 1
TLE1=1 29252U 06029A   18020.90169536  .00000380  00000-0  29197-4 0  9990
TLE2=2 29252  64.5068 294.2610 0036323 302.8098  56.9528 15.17163541634778
